[{"OBJECT_NAME":"STARLINK-33603","OBJECT_ID":"2025-053T","EPOCH":"2026-03-09T12:25:57.283104","MEAN_MOTION":15.27642092,"ECCENTRICITY":0.00015688,"INCLINATION":42.9995,"RA_OF_ASC_NODE":243.0323,"ARG_OF_PERICENTER":285.3974,"MEAN_ANOMALY":74.6704,"EPHEMERIS_TYPE":0,"CLASSIFICATION_TYPE":"U","NORAD_CAT_ID":63282,"ELEMENT_SET_NO":999,"REV_AT_EPOCH":5616,"BSTAR":0.0025977267,"MEAN_MOTION_DOT":0.0007206,"MEAN_MOTION_DDOT":0},{"OBJECT_NAME":"OBJECT F","OBJECT_ID":"2021-022F","EPOCH":"2026-03-09T23:37:37.165152","MEAN_MOTION":15.31317672,"ECCENTRICITY":0.00120882,"INCLINATION":97.3982,"RA_OF_ASC_NODE":329.8375,"ARG_OF_PERICENTER":85.9268,"MEAN_ANOMALY":274.3355,"EPHEMERIS_TYPE":0,"CLASSIFICATION_TYPE":"U","NORAD_CAT_ID":47937,"ELEMENT_SET_NO":999,"REV_AT_EPOCH":27452,"BSTAR":0.00038690553,"MEAN_MOTION_DOT":0.00011656,"MEAN_MOTION_DDOT":0}]
